     2              NAVIGATION DATA                         RINEX VERSION / TYPE
CCRINEXN V1.6.0 UX  CDDIS               03-JUL-16 15:33     PGM / RUN BY / DATE 
IGS BROADCAST EPHEMERIS FILE                                COMMENT             
    0.4657D-08  0.1490D-07 -0.5960D-07 -0.1192D-06          ION ALPHA           
    0.8192D+05  0.8192D+05 -0.6554D+05 -0.5243D+06          ION BETA            
   -0.279396772385D-08-0.888178419700D-14   147456     1904 DELTA-UTC: A0,A1,T,W
    17                                                      LEAP SECONDS        
                                                            END OF HEADER       
28 16  7  2 12  0  0.0 0.534308142960D-03 0.272848410532D-11 0.000000000000D+00
    0.320000000000D+02-0.226562500000D+02 0.431910847963D-08-0.687999488569D-01
   -0.107474625111D-05 0.197568094591D-01 0.139512121677D-05 0.515362905884D+04
    0.561600000000D+06-0.203028321266D-06 0.147117650345D+01 0.130385160446D-07
    0.989235871336D+00 0.368687500000D+03-0.161473188214D+01-0.866607526253D-08
   -0.187150652719D-09 0.000000000000D+00 0.190300000000D+04 0.000000000000D+00
    0.200000000000D+01 0.000000000000D+00-0.111758708954D-07 0.320000000000D+02
    0.554400000000D+06 0.400000000000D+01 0.000000000000D+00 0.000000000000D+00
29 16  7  2 12  0  0.0 0.656032934785D-03-0.568434188608D-12 0.000000000000D+00
    0.770000000000D+02-0.129718750000D+03 0.377801451233D-08 0.134964325568D+01
   -0.673532485962D-05 0.866579706781D-03 0.103581696749D-04 0.515355795097D+04
    0.561600000000D+06-0.279396772385D-07 0.249753876184D+01 0.726431608200D-07
    0.977932133016D+00 0.186968750000D+03-0.104714992931D+00-0.771103548129D-08
   -0.244653047924D-09 0.000000000000D+00 0.190300000000D+04 0.000000000000D+00
    0.280000000000D+01 0.000000000000D+00-0.102445483208D-07 0.770000000000D+02
    0.554400000000D+06 0.400000000000D+01 0.000000000000D+00 0.000000000000D+00
30 16  7  2 12  0  0.0 0.137053895742D-03 0.250111042988D-11 0.000000000000D+00
    0.230000000000D+02 0.136218750000D+03 0.473841144100D-08 0.269367367652D+01
    0.722333788872D-05 0.226084794849D-02 0.697746872902D-05 0.515359746552D+04
    0.561600000000D+06-0.124797224999D-06 0.414070547632D+00 0.391155481338D-07
    0.952113994455D+00 0.242656250000D+03 0.306592116493D+01-0.821141377116D-08
    0.295369451120D-09 0.100000000000D+01 0.190300000000D+04 0.000000000000D+00
    0.200000000000D+01 0.000000000000D+00 0.325962901115D-08 0.230000000000D+02
    0.554400000000D+06 0.000000000000D+00 0.000000000000D+00 0.000000000000D+00
31 16  7  2 12  0  0.0 0.260970089585D-03-0.193267624127D-11 0.000000000000D+00
    0.800000000000D+01 0.155500000000D+03 0.435160983345D-08 0.244385369574D+01
    0.819191336632D-05 0.814624200575D-02 0.797025859356D-05 0.515378077507D+04
    0.561600000000D+06 0.428408384323D-07 0.379961949912D+00 0.204890966415D-06
    0.971159290443D+00 0.230468750000D+03-0.395782705276D+00-0.800426198107D-08
    0.259296515026D-09 0.100000000000D+01 0.190300000000D+04 0.000000000000D+00
    0.200000000000D+01 0.000000000000D+00-0.135041773319D-07 0.800000000000D+01
    0.561330000000D+06 0.400000000000D+01 0.000000000000D+00 0.000000000000D+00
32 16  7  2 12  0  0.0-0.379998236895D-04-0.932232069317D-11 0.000000000000D+00
    0.350000000000D+02 0.114375000000D+02 0.450411618595D-08-0.523723566412D+00
    0.646337866783D-06 0.548758544028D-03 0.116396695375D-04 0.515362417793D+04
    0.561600000000D+06-0.186264514923D-08-0.705710923647D+00-0.353902578354D-07
    0.959410789916D+00 0.155312500000D+03-0.232894102273D+01-0.782532595624D-08
   -0.509664086698D-09 0.100000000000D+01 0.190300000000D+04 0.000000000000D+00
    0.200000000000D+01 0.000000000000D+00 0.465661287308D-09 0.350000000000D+02
    0.554400000000D+06 0.400000000000D+01 0.000000000000D+00 0.000000000000D+00
10 16  7  2 13 59 44.0-0.575766898692D-04-0.761701812735D-11 0.000000000000D+00
    0.240000000000D+02-0.590625000000D+01 0.495199198463D-08 0.201923292525D+01
   -0.279396772385D-06 0.159996876027D-02 0.495836138725D-05 0.515366925621D+04
    0.568784000000D+06-0.260770320892D-07-0.175074799402D+01-0.186264514923D-08
    0.959095206302D+00 0.280812500000D+03-0.271817050454D+01-0.820462746995D-08
   -0.210723063176D-10 0.000000000000D+00 0.190300000000D+04 0.000000000000D+00
    0.200000000000D+01 0.000000000000D+00 0.232830643654D-08 0.240000000000D+02
    0.564060000000D+06 0.400000000000D+01 0.000000000000D+00 0.000000000000D+00
13 16  7  2 13 59 44.0-0.285571441054D-04-0.250111042988D-11 0.000000000000D+00
    0.200000000000D+01 0.212500000000D+02 0.407481248743D-08-0.172063287739D+01
    0.123120844364D-05 0.421482033562D-02 0.115316361189D-04 0.515368797874D+04
    0.568784000000D+06-0.596046447754D-07-0.586106906414D+00 0.968575477600D-07
    0.971292277011D+00 0.165593750000D+03 0.200344936604D+01-0.769424879365D-08
   -0.402873928662D-09 0.100000000000D+01 0.190300000000D+04 0.000000000000D+00
    0.200000000000D+01 0.000000000000D+00-0.111758708954D-07 0.200000000000D+01
    0.567630000000D+06 0.000000000000D+00 0.000000000000D+00 0.000000000000D+00
24 16  7  2 13 59 44.0-0.194907188416D-04-0.568434188608D-12 0.000000000000D+00
    0.440000000000D+02 0.141625000000D+03 0.475448375762D-08-0.168513865048D+01
    0.723637640476D-05 0.442429725081D-02 0.778585672379D-05 0.515361634255D+04
    0.568784000000D+06 0.633299350738D-07 0.322634437236D+00-0.577419996262D-07
    0.949438330455D+00 0.224437500000D+03 0.411652289919D+00-0.816855453880D-08
    0.283940398686D-09 0.000000000000D+00 0.190300000000D+04 0.000000000000D+00
    0.200000000000D+01 0.000000000000D+00 0.232830643654D-08 0.440000000000D+02
    0.561600000000D+06 0.400000000000D+01 0.000000000000D+00 0.000000000000D+00
29 16  7  2 13 59 44.0 0.656029209495D-03-0.568434188608D-12 0.000000000000D+00
    0.360000000000D+02-0.121406250000D+03 0.388801909446D-08 0.239985772919D+01
   -0.640563666821D-05 0.867382739671D-03 0.983290374279D-05 0.515355391502D+04
    0.568784000000D+06-0.149011611938D-07 0.249748367273D+01-0.372529029846D-08
    0.977930086393D+00 0.200250000000D+03-0.107015794415D+00-0.771675000504D-08
   -0.304298389535D-09 0.000000000000D+00 0.190300000000D+04 0.000000000000D+00
    0.200000000000D+01 0.000000000000D+00-0.102445483208D-07 0.360000000000D+02
    0.565350000000D+06 0.400000000000D+01 0.000000000000D+00 0.000000000000D+00
 1 16  7  2 14  0  0.0 0.255675986409D-04 0.125055521494D-11 0.000000000000D+00
    0.700000000000D+01-0.101250000000D+02 0.415017264999D-08-0.192675510015D+01
   -0.458210706711D-06 0.565548054874D-02 0.107120722532D-04 0.515364227104D+04
    0.568800000000D+06-0.745058059692D-08-0.278823587900D+01-0.726431608200D-07
    0.965013862712D+00 0.176093750000D+03 0.484378367115D+00-0.764460406089D-08
    0.635383634595D-09 0.100000000000D+01 0.190300000000D+04 0.000000000000D+00
    0.200000000000D+01 0.000000000000D+00 0.512227416039D-08 0.700000000000D+01
    0.561600000000D+06 0.000000000000D+00 0.000000000000D+00 0.000000000000D+00
 2 16  7  2 14  0  0.0 0.580552965403D-03-0.375166564481D-11 0.000000000000D+00
    0.980000000000D+02 0.321875000000D+01 0.469340978507D-08-0.154659046147D+01
    0.162050127983D-06 0.157795060659D-01 0.104159116745D-04 0.515359015083D+04
    0.568800000000D+06 0.415369868278D-06-0.283451949247D+01 0.521540641785D-07
    0.943818113721D+00 0.169906250000D+03-0.210479785678D+01-0.791640117846D-08
    0.487163149444D-09 0.100000000000D+01 0.190300000000D+04 0.000000000000D+00
    0.200000000000D+01 0.000000000000D+00-0.200234353542D-07 0.980000000000D+02
    0.561600000000D+06 0.400000000000D+01 0.000000000000D+00 0.000000000000D+00
 3 16  7  2 14  0  0.0-0.723130069673D-04-0.318323145621D-11 0.000000000000D+00
    0.110000000000D+02-0.221875000000D+01 0.490591863692D-08-0.106510356511D+01
   -0.484287738800D-07 0.212613143958D-03 0.507757067680D-05 0.515365925026D+04
    0.568800000000D+06 0.670552253723D-07-0.174676989259D+01 0.447034835815D-07
    0.958861146724D+00 0.281031250000D+03-0.151824093335D+01-0.820212736581D-08
    0.101789954246D-09 0.100000000000D+01 0.190300000000D+04 0.000000000000D+00
    0.200000000000D+01 0.000000000000D+00 0.186264514923D-08 0.110000000000D+02
    0.561600000000D+06 0.400000000000D+01 0.000000000000D+00 0.000000000000D+00
 4 16  7  2 14  0  0.0-0.258270185441D-03 0.579802872380D-11 0.277555756156D-16
    0.940000000000D+02-0.177500000000D+02 0.588274503994D-08 0.126451289128D+01
   -0.827014446259D-06 0.849752407521D-02 0.668689608574D-06 0.515365280914D+04
    0.568800000000D+06-0.173225998878D-06 0.141783696105D+01 0.149011611938D-06
    0.983001476243D+00 0.380906250000D+03 0.900361466549D+00-0.855107047212D-08
   -0.154649298907D-09 0.100000000000D+01 0.190300000000D+04 0.000000000000D+00
    0.800000000000D+01 0.630000000000D+02-0.195577740669D-07 0.940000000000D+02
    0.561600000000D+06 0.400000000000D+01 0.000000000000D+00 0.000000000000D+00
 5 16  7  2 14  0  0.0-0.108432956040D-03 0.284217094304D-11 0.000000000000D+00
    0.890000000000D+02-0.468750000000D+01 0.521593155020D-08 0.942274291884D+00
   -0.122934579849D-06 0.455328309908D-02 0.475347042084D-05 0.515353664970D+04
    0.568800000000D+06-0.353902578354D-07-0.175915887767D+01 0.447034835815D-07
    0.945925630079D+00 0.279750000000D+03 0.453221487500D+00-0.843999441679D-08
   -0.964325882329D-11 0.000000000000D+00 0.190300000000D+04 0.000000000000D+00
    0.200000000000D+01 0.000000000000D+00-0.107102096081D-07 0.890000000000D+02
    0.561600000000D+06 0.400000000000D+01 0.000000000000D+00 0.000000000000D+00
